[Satellite]
VERSION=1.1
NAME=MOLNIYA 1-52
NICKNAME=MOLNIYA 1-52
TLE1=1 13012U 81123A   22341.88414853  .00001554  00000+0  12154-1 0  9993
TLE2=2 13012  61.6394 253.7616 7207716 257.2330  20.4508  2.00525675300059
STATUS=0
